NORAD_CAT_ID,OBJECT_NAME,OBJECT_TYPE,EPOCH,MEAN_MOTION,ECCENTRICITY,INCLINATION,RA_OF_ASC_NODE,ARG_OF_PERICENTER,MEAN_ANOMALY,BSTAR,MEAN_MOTION_DOT,MEAN_MOTION_DDOT,TLE_LINE0,TLE_LINE1,TLE_LINE2,SEMIMAJOR_AXIS,PERIOD,APOGEE,PERIGEE,DECAYED
55765.0,STARLINK-5595,PAYLOAD,2024-06-14 07:13:10,14.98334484,0.0002851,70.0002,21.6165,270.5642,89.519,-4.4564e-05,-6.25e-06,0.0,0 STARLINK-5595,1 55765U 23028AA  24166.30081952 -.00000625  00000-0 -44564-4 0  9992,2 55765  70.0002  21.6165 0002851 270.5642  89.5190 14.98334484 71651,6950.179,96.107,574.026,570.063,0.0
55765.0,STARLINK-5595,PAYLOAD,2024-06-14 21:38:23,14.98327631,0.000287,70.0002,20.1024,267.5924,92.4906,2.2981e-05,1.81e-06,0.0,0 STARLINK-5595,1 55765U 23028AA  24166.90166192  .00000181  00000-0  22981-4 0  9992,2 55765  70.0002  20.1024 0002870 267.5924  92.4906 14.98327631 71743,6950.2,96.107,574.06,570.071,0.0
55765.0,STARLINK-5595,PAYLOAD,2024-06-15 07:15:12,14.9832297,0.0002721,70.0004,19.0924,269.4565,90.6282,0.00011248,1.249e-05,0.0,0 STARLINK-5595,1 55765U 23028AA  24167.30222350  .00001249  00000-0  11248-3 0  9995,2 55765  70.0004  19.0924 0002721 269.4565  90.6282 14.98322970 71803,6950.215,96.107,573.971,570.188,0.0
55765.0,STARLINK-5595,PAYLOAD,2024-06-15 20:04:16,14.98333021,0.0002898,70.0002,17.7455,268.7613,91.3214,-2.5376e-05,-3.96e-06,0.0,0 STARLINK-5595,1 55765U 23028AA  24167.83629920 -.00000396  00000-0 -25376-4 0  9999,2 55765  70.0002  17.7455 0002898 268.7613  91.3214 14.98333021 71886,6950.184,96.107,574.063,570.034,0.0
55765.0,STARLINK-5595,PAYLOAD,2024-06-16 07:17:12,14.9833228,0.0002845,70.0003,16.5671,269.1517,90.9317,3.1239e-06,-5.6e-07,0.0,0 STARLINK-5595,1 55765U 23028AA  24168.30361784 -.00000056  00000-0  31239-5 0  9991,2 55765  70.0003  16.5671 0002845 269.1517  90.9317 14.98332280 71957,6950.186,96.107,574.028,570.074,0.0
55765.0,STARLINK-5595,PAYLOAD,2024-06-16 21:42:25,14.98329199,0.0002905,70.0001,15.0518,267.9499,92.1328,7.5829e-06,-3e-08,0.0,0 STARLINK-5595,1 55765U 23028AA  24168.90445887 -.00000003  00000-0  75829-5 0  9999,2 55765  70.0001  15.0518 0002905 267.9499  92.1328 14.98329199 72043,6950.195,96.107,574.079,570.041,0.0
55765.0,STARLINK-5595,PAYLOAD,2024-06-17 20:08:18,14.98328256,0.0002978,69.9997,12.6944,268.5056,91.5761,-3.9679e-05,-5.66e-06,0.0,0 STARLINK-5595,1 55765U 23028AA  24169.83910096 -.00000566  00000-0 -39679-4 0  9998,2 55765  69.9997  12.6944 0002978 268.5056  91.5761 14.98328256 72177,6950.198,96.107,574.133,569.994,0.0
55765.0,STARLINK-5595,PAYLOAD,2024-06-17 21:44:26,14.9832826,0.0002977,69.9997,12.5261,268.5245,91.5573,-3.872e-05,-5.55e-06,0.0,0 STARLINK-5595,1 55765U 23028AA  24169.90586098 -.00000555  00000-0 -38720-4 0  9991,2 55765  69.9997  12.5261 0002977 268.5245  91.5573 14.98328260 72195,6950.198,96.107,574.132,569.994,0.0
55765.0,STARLINK-5595,PAYLOAD,2024-06-18 13:45:46,14.98329469,0.0003013,69.9996,10.8427,268.6948,91.3866,9.7462e-06,2.3e-07,0.0,0 STARLINK-5595,1 55765U 23028AA  24170.57345889  .00000023  00000-0  97462-5 0  9994,2 55765  69.9996  10.8427 0003013 268.6948  91.3866 14.98329469 72298,6950.195,96.107,574.154,569.965,0.0
55765.0,STARLINK-5595,PAYLOAD,2024-06-18 20:10:19,14.98331124,0.0003065,69.9996,10.1697,269.5247,90.5561,5.9121e-06,-2.2e-07,0.0,0 STARLINK-5595,1 55765U 23028AA  24170.84049805 -.00000022  00000-0  59121-5 0  9993,2 55765  69.9996  10.1697 0003065 269.5247  90.5561 14.98331124 72327,6950.189,96.107,574.185,569.924,0.0
55765.0,STARLINK-5595,PAYLOAD,2024-06-19 13:47:47,14.98327339,0.0003008,69.9998,8.318,270.0078,90.0737,3.0084e-05,2.66e-06,0.0,0 STARLINK-5595,1 55765U 23028AA  24171.57485978  .00000266  00000-0  30084-4 0  9994,2 55765  69.9998   8.3180 0003008 270.0078  90.0737 14.98327339 72447,6950.201,96.107,574.157,569.975,0.0
55765.0,STARLINK-5595,PAYLOAD,2024-06-19 20:12:20,14.98327782,0.0003066,69.9996,7.6446,270.017,90.0638,9.1081e-06,1.6e-07,0.0,0 STARLINK-5595,1 55765U 23028AA  24171.84190046  .00000016  00000-0  91081-5 0  9991,2 55765  69.9996   7.6446 0003066 270.0170  90.0638 14.98327782 72474,6950.2,96.107,574.196,569.934,0.0
55765.0,STARLINK-5595,PAYLOAD,2024-06-19 21:48:28,14.98329386,0.0003068,69.9996,7.4762,270.0398,90.041,2.5453e-05,2.11e-06,0.0,0 STARLINK-5595,1 55765U 23028AA  24171.90865900  .00000211  00000-0  25453-4 0  9992,2 55765  69.9996   7.4762 0003068 270.0398  90.0410 14.98329386 72499,6950.195,96.107,574.192,569.927,0.0
55765.0,STARLINK-5595,PAYLOAD,2024-06-20 13:49:48,14.98331707,0.0002987,69.9999,5.793,270.7972,89.2845,2.198e-05,1.69e-06,0.0,0 STARLINK-5595,1 55765U 23028AA  24172.57625761  .00000169  00000-0  21980-4 0  9998,2 55765  69.9999   5.7930 0002987 270.7972  89.2845 14.98331707 72597,6950.188,96.107,574.129,569.977,0.0
55765.0,STARLINK-5595,PAYLOAD,2024-06-20 21:50:28,14.98333247,0.0003044,69.9997,4.9508,272.2173,87.8638,2.8454e-05,2.47e-06,0.0,0 STARLINK-5595,1 55765U 23028AA  24172.91005592  .00000247  00000-0  28454-4 0  9990,2 55765  69.9997   4.9508 0003044 272.2173  87.8638 14.98333247 72643,6950.183,96.107,574.163,569.932,0.0
55765.0,STARLINK-5595,PAYLOAD,2024-06-20 23:26:36,14.98334108,0.0003045,69.9997,4.7825,272.177,87.904,3.7218e-05,3.51e-06,0.0,0 STARLINK-5595,1 55765U 23028AA  24172.97681496  .00000351  00000-0  37218-4 0  9993,2 55765  69.9997   4.7825 0003045 272.1770  87.9040 14.98334108 72641,6950.18,96.107,574.162,569.929,0.0
55765.0,STARLINK-5595,PAYLOAD,2024-06-21 13:51:49,14.9833065,0.0003036,69.9998,3.2674,273.1659,86.9153,1.8957e-05,1.33e-06,0.0,0 STARLINK-5595,1 55765U 23028AA  24173.57765651  .00000133  00000-0  18957-4 0  9993,2 55765  69.9998   3.2674 0003036 273.1659  86.9153 14.98330650 72748,6950.191,96.107,574.166,569.946,0.0
55765.0,STARLINK-5595,PAYLOAD,2024-06-21 21:52:29,14.98331164,0.0003039,69.9998,2.4258,272.6114,87.4697,1.9701e-05,1.42e-06,0.0,0 STARLINK-5595,1 55765U 23028AA  24173.91145580  .00000142  00000-0  19701-4 0  9992,2 55765  69.9998   2.4258 0003039 272.6114  87.4697 14.98331164 72795,6950.189,96.107,574.166,569.942,0.0
55765.0,STARLINK-5595,PAYLOAD,2024-06-22 12:17:42,14.98329234,0.0002907,70.0002,0.9116,267.3396,92.743,-3.9607e-05,-5.66e-06,0.0,0 STARLINK-5595,1 55765U 23028AA  24174.51229820 -.00000566  00000-0 -39607-4 0  9998,2 55765  70.0002   0.9116 0002907 267.3396  92.7430 14.98329234 72874,6950.195,96.107,574.081,570.04,0.0
55765.0,STARLINK-5595,PAYLOAD,2024-06-22 13:53:50,14.98329293,0.0002908,70.0002,0.7433,266.5061,93.5765,-3.8783e-05,-5.56e-06,0.0,0 STARLINK-5595,1 55765U 23028AA  24174.57905805 -.00000556  00000-0 -38783-4 0  9991,2 55765  70.0002   0.7433 0002908 266.5061  93.5765 14.98329293 72892,6950.195,96.107,574.081,570.039,0.0
55765.0,STARLINK-5595,PAYLOAD,2024-06-22 21:54:31,14.9832773,0.0002918,70.0002,359.9016,264.5213,95.5614,-5.2588e-05,-7.2e-06,0.0,0 STARLINK-5595,1 55765U 23028AA  24174.91285943 -.00000720  00000-0 -52588-4 0  9995,2 55765  70.0002 359.9016 0002918 264.5213  95.5614 14.98327730 72941,6950.2,96.107,574.093,570.037,0.0
55765.0,STARLINK-5595,PAYLOAD,2024-06-23 12:19:43,14.98329026,0.0002965,70.0001,358.3868,266.3559,93.7261,-1.2433e-05,-2.41e-06,0.0,0 STARLINK-5595,1 55765U 23028AA  24175.51369772 -.00000241  00000-0 -12433-4 0  9998,2 55765  70.0001 358.3868 0002965 266.3559  93.7261 14.98329026 73021,6950.196,96.107,574.122,570.0,0.0
55765.0,STARLINK-5595,PAYLOAD,2024-06-23 13:55:51,14.98328796,0.0002973,70.0001,358.2186,266.2472,93.8347,-1.5958e-05,-2.83e-06,0.0,0 STARLINK-5595,1 55765U 23028AA  24175.58045796 -.00000283  00000-0 -15958-4 0  9993,2 55765  70.0001 358.2186 0002973 266.2472  93.8347 14.98328796 73046,6950.197,96.107,574.128,569.995,0.0
55765.0,STARLINK-5595,PAYLOAD,2024-06-23 21:56:31,14.98329964,0.000295,70.0002,357.3771,265.6953,94.3869,8.8923e-07,-8.2e-07,0.0,0 STARLINK-5595,1 55765U 23028AA  24175.91425686 -.00000082  00000-0  88923-6 0  9990,2 55765  70.0002 357.3771 0002950 265.6953  94.3869 14.98329964 73097,6950.193,96.107,574.108,570.008,0.0
55765.0,STARLINK-5595,PAYLOAD,2024-06-24 12:21:44,14.98330804,0.000301,70.0001,355.8623,263.5952,96.4864,6.0253e-05,6.26e-06,0.0,0 STARLINK-5595,1 55765U 23028AA  24176.51509405  .00000626  00000-0  60253-4 0  9996,2 55765  70.0001 355.8623 0003010 263.5952  96.4864 14.98330804 73171,6950.19,96.107,574.147,569.963,0.0
55765.0,STARLINK-5595,PAYLOAD,2024-06-24 13:57:52,14.98329901,0.0003028,70.0,355.6947,262.8327,97.2488,4.716e-05,4.7e-06,0.0,0 STARLINK-5595,1 55765U 23028AA  24176.58185488  .00000470  00000-0  47160-4 0  9993,2 55765  70.0000 355.6947 0003028 262.8327  97.2488 14.98329901 73193,6950.193,96.107,574.163,569.954,0.0
55765.0,STARLINK-5595,PAYLOAD,2024-06-24 21:58:32,14.98331945,0.0003012,70.0001,354.853,262.557,97.5246,6.5579e-05,6.9e-06,0.0,0 STARLINK-5595,1 55765U 23028AA  24176.91565283  .00000690  00000-0  65579-4 0  9993,2 55765  70.0001 354.8530 0003012 262.5570  97.5246 14.98331945 73245,6950.187,96.107,574.145,569.958,0.0
55765.0,STARLINK-5595,PAYLOAD,2024-06-25 12:23:45,14.98330581,0.0002972,70.0002,353.3389,260.2702,99.8121,4.3519e-06,-4.1e-07,0.0,0 STARLINK-5595,1 55765U 23028AA  24177.51649493 -.00000041  00000-0  43519-5 0  9998,2 55765  70.0002 353.3389 0002972 260.2702  99.8121 14.98330581 73329,6950.191,96.107,574.122,569.99,0.0
55765.0,STARLINK-5595,PAYLOAD,2024-06-25 13:59:53,14.98330898,0.000297,70.0003,353.1703,259.9655,100.1169,9.076e-06,1.5e-07,0.0,0 STARLINK-5595,1 55765U 23028AA  24177.58325446  .00000015  00000-0  90760-5 0  9994,2 55765  70.0003 353.1703 0002970 259.9655 100.1169 14.98330898 73349,6950.19,96.107,574.119,569.991,0.0
55765.0,STARLINK-5595,PAYLOAD,2024-06-25 22:00:33,14.98332166,0.0002944,70.0004,352.3285,260.3493,99.7333,2.3399e-05,1.86e-06,0.0,0 STARLINK-5595,1 55765U 23028AA  24177.91705283  .00000186  00000-0  23399-4 0  9994,2 55765  70.0004 352.3285 0002944 260.3493  99.7333 14.98332166 73394,6950.186,96.107,574.097,570.005,0.0
